1 29272U 06033A   19052.49283631 -.00000367 +00000-0 +00000-0 0  9997
2 29272 000.0538 281.8322 0002158 050.2267 090.8544 01.00271142020932